DRAGON CRS-29           
1 58255U 23173A   23324.35368357  .00013532  00000+0  24932-3 0  9991
2 58255  51.6404 275.0383 0001081 316.8693  43.2211 15.49460464426009
2023-175A               
1 58346U 23175A   23321.72174442  .00000056  00000+0  28732-2 0  9990
2 58346   8.8399 193.5472 1950374 194.5131 158.9927  7.31383447   358
2023-175B               
1 58347U 23175B   23321.71583102  .00000056  00000+0  26702-2 0  9992
2 58347   8.9935 193.6089 1967305 194.6340 158.7535  7.33458900   358
FALCON 9 R/B            
1 58348U 23175C   23324.02177466  .00000142  00000+0  39874-1 0  9991
2 58348   9.0070 190.1664 1972190 201.6304 148.7528  7.34851225   527
YZ-1S R/B               
1 58350U 23176B   23322.04029374  .06309331  31904-5  18329-3 0  9994
2 58350  98.5907  30.0682 0411941 295.9210 163.4597 15.57242460   289
