[{"OBJECT_NAME":"DRAGON CRS-29","OBJECT_ID":"2023-173A","EPOCH":"2023-11-20T08:29:18.260448","MEAN_MOTION":15.49460464,"ECCENTRICITY":0.0001081,"INCLINATION":51.6404,"RA_OF_ASC_NODE":275.0383,"ARG_OF_PERICENTER":316.8693,"MEAN_ANOMALY":43.2211,"EPHEMERIS_TYPE":0,"CLASSIFICATION_TYPE":"U","NORAD_CAT_ID":58255,"ELEMENT_SET_NO":999,"REV_AT_EPOCH":42600,"BSTAR":0.00024932,"MEAN_MOTION_DOT":0.00013532,"MEAN_MOTION_DDOT":0},{"OBJECT_NAME":"2023-175A","OBJECT_ID":"2023-175A","EPOCH":"2023-11-17T17:19:18.717888","MEAN_MOTION":7.31383447,"ECCENTRICITY":0.1950374,"INCLINATION":8.8399,"RA_OF_ASC_NODE":193.5472,"ARG_OF_PERICENTER":194.5131,"MEAN_ANOMALY":158.9927,"EPHEMERIS_TYPE":0,"CLASSIFICATION_TYPE":"U","NORAD_CAT_ID":58346,"ELEMENT_SET_NO":999,"REV_AT_EPOCH":35,"BSTAR":0.0028732,"MEAN_MOTION_DOT":5.6e-7,"MEAN_MOTION_DDOT":0},{"OBJECT_NAME":"2023-175B","OBJECT_ID":"2023-175B","EPOCH":"2023-11-17T17:10:47.800128","MEAN_MOTION":7.334589,"ECCENTRICITY":0.1967305,"INCLINATION":8.9935,"RA_OF_ASC_NODE":193.6089,"ARG_OF_PERICENTER":194.634,"MEAN_ANOMALY":158.7535,"EPHEMERIS_TYPE":0,"CLASSIFICATION_TYPE":"U","NORAD_CAT_ID":58347,"ELEMENT_SET_NO":999,"REV_AT_EPOCH":35,"BSTAR":0.0026702,"MEAN_MOTION_DOT":5.6e-7,"MEAN_MOTION_DDOT":0},{"OBJECT_NAME":"FALCON 9 R\/B","OBJECT_ID":"2023-175C","EPOCH":"2023-11-20T00:31:21.330624","MEAN_MOTION":7.34851225,"ECCENTRICITY":0.197219,"INCLINATION":9.007,"RA_OF_ASC_NODE":190.1664,"ARG_OF_PERICENTER":201.6304,"MEAN_ANOMALY":148.7528,"EPHEMERIS_TYPE":0,"CLASSIFICATION_TYPE":"U","NORAD_CAT_ID":58348,"ELEMENT_SET_NO":999,"REV_AT_EPOCH":52,"BSTAR":0.039874,"MEAN_MOTION_DOT":1.42e-6,"MEAN_MOTION_DDOT":0},{"OBJECT_NAME":"YZ-1S R\/B","OBJECT_ID":"2023-176B","EPOCH":"2023-11-18T00:58:01.379136","MEAN_MOTION":15.5724246,"ECCENTRICITY":0.0411941,"INCLINATION":98.5907,"RA_OF_ASC_NODE":30.0682,"ARG_OF_PERICENTER":295.921,"MEAN_ANOMALY":163.4597,"EPHEMERIS_TYPE":0,"CLASSIFICATION_TYPE":"U","NORAD_CAT_ID":58350,"ELEMENT_SET_NO":999,"REV_AT_EPOCH":28,"BSTAR":0.00018329,"MEAN_MOTION_DOT":0.06309331,"MEAN_MOTION_DDOT":3.1904e-6}]
